Times: 0 1 2 3 4 5 6 7 8 9 10 11 12 13 14 15 16 17 18 19 20 21 22 23 24 25 25 27 28 29 30 31

1 11801U          80230.29629788  .01431103  00000-0  14311-1       2
2 11801U 46.7916 230.4354 7318036  47.4722  10.4117  2.28537848     2

Times: 0 360 720 1080 1440

# I played around with some zero-e satellites to check that bug:
#1 11801U          80230.29629788  .01431103  00000-0  14311-1       2
#2 11801U 46.7916 230.4354 0000000  47.4722  10.4117  2.28537848     4

1 23581U 95025A   01311.43599209 -.00000094  00000-0  00000+0 0  8214
2 23581   1.1236  93.7945 0005741 214.4722 151.5103  1.00270260 23672
   /* above is GOES 9 */
1 11871U 80057A   01309.36911127 -.00000499 +00000-0 +10000-3 0 08380
2 11871 067.5731 001.8936 6344778 181.9632 173.2224 02.00993562062886
   /* above is Cosmos 1191 */
1 09931U 77029A   01309.17453186 -.00000329 +00000-0 +10000-3 0 05967
2 09931 026.4846 264.1300 6609654 082.2734 342.9061 01.96179522175451

         /* Switch around to different times to test: */

Times: 1440 0 360 1080 720 719 -2880
   /* Cosmos 1217 */
1 12032U 80085A   01309.42683181  .00000182  00000-0  10000-3 0  3499
2 12032  65.2329  86.7607 7086222 172.0967 212.4632  2.00879501101699
   /* Molniya 3-19Rk */
1 13446U 82083E   01283.10818257  .00098407  45745-7  54864-3 0  6240
2 13446  62.1717  83.8458 7498877 273.9677 320.2568  2.06357523137203
   /* Ariane Deb */
1 23246U 91015G   01311.70347086  .00004957  00000-0  43218-2 0  8190
2 23246   7.1648 263.6949 5661268 241.8299  50.5793  4.44333001129208
1 88888U          80275.98708465  .00073094  13844-3  66816-4 0    87
2 88888  72.8435 115.9689 0086731  52.6988 110.5714 16.05824518  1058

1 00553U 63004A   77069.11186343 -.00000050 +00000-0 +00000-0 0 00056
2 00553 033.5060 020.0500 0337500 270.6300 085.5000 01.00948389000106
   /* above is Syncom 1 */
Unknown 98003
1 98003U          01079.82102009 0.00000000  00000-0 +00000+0 0    01
2 98003  15.5935 354.8013 0015600 263.1079  96.8986  0.99816000    03
95586 A
1 99331U 95586 A  01083.00000000  .00000000  00000-0  00000+0 0    02
2 99331   2.0413  66.6424 0042740 166.0448 281.2000  1.00273142    04
96750A
1 99337U 96750A   01088.00000000  .00000000  00000-0  00000+0 0    07
2 99337   6.1829 349.1711 0918991 187.9440 347.1192  1.00269427    03
Iridium 921tum                  5.5    6.6
1 24873U 97034E   02082.49700151  .00007707  00000-0  80741-3 0  6717
2 24873  86.3901 131.0630 0010160 338.7719  21.3095 14.89420428254310
96051J
1 24875U 96051J   02082.46969260  .00045815  00000-0  12983-1 0   540
2 24875  71.1295 245.1704 0037175  68.5321 292.0237 14.44819470284117
97035A
1 24876U 97035A   02078.28561105 +.00000010 +00000-0 +00000-0 0 09256
2 24876 055.7160 084.3160 0019362 356.8391 003.1921 02.00573292034149
94029GM
1 24138U 94029GM  02078.77267326 +.00026592 +00000-0 +63509-2 0 09707
2 24138 081.5941 007.5003 0284757 314.7693 043.0606 14.31683973298361
94029HA
1 24151U 94029HA  02078.68402149 +.00005369 +00000-0 +11280-2 0 09568
2 24151 082.0281 009.7261 0181752 265.0522 092.9956 14.49591905305215
94029HF
1 24156U 94029HF  02079.22959898  .00078684  00000-0  11005-1 0  3773
2 24156  82.1981 162.4355 0207818 237.7291 120.3519 14.63437792297579
Molniya 2-9                     4.5     15
1 07276U 74026A   02076.77143097 -.00000040 +00000-0 +10000-3 0 09926
2 07276 064.4058 003.2732 6887090 270.2374 017.8845 02.24788602077456
73086EZ
1 07191U 73086EZ  02076.63595131 -.00000031  00000-0  10000-3 0  9045
2 07191 102.1490 334.0121 0253607  54.7437 307.7251 12.10431881825991
73086FA
1 07192U 73086FA  02077.02656547 -.00000031  00000-0  10000-3 0  6091
2 07192 102.1562 252.5740 0443592 220.8713 135.8303 11.59390485200610
GPS-0003                        5.0    .53
1 11054U 78093A   02069.41465182 -.00000030  00000-0  00000+0 0  7661
2 11054  62.4872 198.8383 0057450 192.9653 166.8284  1.93504662169140
Molniya 3-10     5.0  0.0  0.0  4.5     15
1 11057U 78095A   02077.63138055  .00000149  00000-0  10000-3 0  5309
2 11057  63.7422 203.7241 6717022 282.5815  14.8175  2.34176921180342
99066A
1 25989U 99066A   02080.37500000  .00000000  00000-0  00000+0 0  4082
2 25989  34.6613 172.6861 7995138 107.4591   3.7150  0.50103982  1159
XMM Ari Rk                      3.0     20
1 25990U 99066B   02082.00000000  .00000000  00000-0  00000+0 0  3260
2 25990  44.2277 151.3168 8216838 138.1402 356.4324  0.55308221  1445

      Now do some tests of "plain,  ordinary" SGP:

Ephem 1

1 88888U          80275.98708465  .00073094  13844-3  66816-4 0    87
2 88888  72.8435 115.9689 0086731  52.6988 110.5714 16.05824518  1058
73086EZ
1 07191U 73086EZ  02076.63595131 -.00000031  00000-0  10000-3 0  9045
2 07191 102.1490 334.0121 0253607  54.7437 307.7251 12.10431881825991
94029HA
1 24151U 94029HA  02078.68402149 +.00005369 +00000-0 +11280-2 0 09568
2 24151 082.0281 009.7261 0181752 265.0522 092.9956 14.49591905305215

      Now test some SxP8 cases:

Ephem 4

1 11801U          80230.29629788  .01431103  00000-0  14311-1       2
2 11801U 46.7916 230.4354 7318036  47.4722  10.4117  2.28537848     2
Times: 1440 0 360 1080 720 719 -2880
1 23581U 95025A   01311.43599209 -.00000094  00000-0  00000+0 0  8214
2 23581   1.1236  93.7945 0005741 214.4722 151.5103  1.00270260 23672
   /* above is GOES 9 */
1 11871U 80057A   01309.36911127 -.00000499 +00000-0 +10000-3 0 08380
2 11871 067.5731 001.8936 6344778 181.9632 173.2224 02.00993562062886
   /* above is Cosmos 1191 */
1 09931U 77029A   01309.17453186 -.00000329 +00000-0 +10000-3 0 05967
2 09931 026.4846 264.1300 6609654 082.2734 342.9061 01.96179522175451
   /* Cosmos 1217 */
1 12032U 80085A   01309.42683181  .00000182  00000-0  10000-3 0  3499
2 12032  65.2329  86.7607 7086222 172.0967 212.4632  2.00879501101699
   /* Molniya 3-19Rk */
1 13446U 82083E   01283.10818257  .00098407  45745-7  54864-3 0  6240
2 13446  62.1717  83.8458 7498877 273.9677 320.2568  2.06357523137203
   /* Ariane Deb */
1 23246U 91015G   01311.70347086  .00004957  00000-0  43218-2 0  8190
2 23246   7.1648 263.6949 5661268 241.8299  50.5793  4.44333001129208
1 88888U          80275.98708465  .00073094  13844-3  66816-4 0    87
2 88888  72.8435 115.9689 0086731  52.6988 110.5714 16.05824518  1058

1 00553U 63004A   77069.11186343 -.00000050 +00000-0 +00000-0 0 00056
2 00553 033.5060 020.0500 0337500 270.6300 085.5000 01.00948389000106
   /* above is Syncom 1 */

      Now switch back to SxP4:
Ephem 2
Unknown 98003
1 98003U          01079.82102009 0.00000000  00000-0 +00000+0 0    01
2 98003  15.5935 354.8013 0015600 263.1079  96.8986  0.99816000    03
95586 A
1 99331U 95586 A  01083.00000000  .00000000  00000-0  00000+0 0    02
2 99331   2.0413  66.6424 0042740 166.0448 281.2000  1.00273142    04
96750A
1 99337U 96750A   01088.00000000  .00000000  00000-0  00000+0 0    07
2 99337   6.1829 349.1711 0918991 187.9440 347.1192  1.00269427    03
Iridium 921tum                  5.5    6.6
1 24873U 97034E   02082.49700151  .00007707  00000-0  80741-3 0  6717
2 24873  86.3901 131.0630 0010160 338.7719  21.3095 14.89420428254310
96051J
1 24875U 96051J   02082.46969260  .00045815  00000-0  12983-1 0   540
2 24875  71.1295 245.1704 0037175  68.5321 292.0237 14.44819470284117
97035A
1 24876U 97035A   02078.28561105 +.00000010 +00000-0 +00000-0 0 09256
2 24876 055.7160 084.3160 0019362 356.8391 003.1921 02.00573292034149
94029GM
1 24138U 94029GM  02078.77267326 +.00026592 +00000-0 +63509-2 0 09707
2 24138 081.5941 007.5003 0284757 314.7693 043.0606 14.31683973298361
94029HA
1 24151U 94029HA  02078.68402149 +.00005369 +00000-0 +11280-2 0 09568
2 24151 082.0281 009.7261 0181752 265.0522 092.9956 14.49591905305215
94029HF
1 24156U 94029HF  02079.22959898  .00078684  00000-0  11005-1 0  3773
2 24156  82.1981 162.4355 0207818 237.7291 120.3519 14.63437792297579
Molniya 2-9                     4.5     15
1 07276U 74026A   02076.77143097 -.00000040 +00000-0 +10000-3 0 09926
2 07276 064.4058 003.2732 6887090 270.2374 017.8845 02.24788602077456
73086EZ
1 07191U 73086EZ  02076.63595131 -.00000031  00000-0  10000-3 0  9045
2 07191 102.1490 334.0121 0253607  54.7437 307.7251 12.10431881825991
73086FA
1 07192U 73086FA  02077.02656547 -.00000031  00000-0  10000-3 0  6091
2 07192 102.1562 252.5740 0443592 220.8713 135.8303 11.59390485200610
GPS-0003                        5.0    .53
1 11054U 78093A   02069.41465182 -.00000030  00000-0  00000+0 0  7661
2 11054  62.4872 198.8383 0057450 192.9653 166.8284  1.93504662169140
Molniya 3-10     5.0  0.0  0.0  4.5     15
1 11057U 78095A   02077.63138055  .00000149  00000-0  10000-3 0  5309
2 11057  63.7422 203.7241 6717022 282.5815  14.8175  2.34176921180342
99066A
1 25989U 99066A   02080.37500000  .00000000  00000-0  00000+0 0  4082
2 25989  34.6613 172.6861 7995138 107.4591   3.7150  0.50103982  1159
XMM Ari Rk                      3.0     20
1 25990U 99066B   02082.00000000  .00000000  00000-0  00000+0 0  3260
2 25990  44.2277 151.3168 8216838 138.1402 356.4324  0.55308221  1445
           28 Jun 2007: test some imaginary 0-incl and 90-incl cases
           (Just taking some above cases and resetting incl)
XMM Ari Rk                      3.0     20
1 95990U 99066B   02082.00000000  .00000000  00000-0  00000+0 0  3260
2 95990  00.0000 151.3168 8216838 138.1402 356.4324  0.55308221  1445
XMM Ari Rk                      3.0     20
1 95991U 99066B   02082.00000000  .00000000  00000-0  00000+0 0  3260
2 95991  90.0000 151.3168 8216838 138.1402 356.4324  0.55308221  1445
GPS-0003                        5.0    .53
1 91054U 78093A   02069.41465182 -.00000030  00000-0  00000+0 0  7661
2 91054  00.0000 198.8383 0057450 192.9653 166.8284  1.93504662169140
GPS-0003                        5.0    .53
1 91055U 78093A   02069.41465182 -.00000030  00000-0  00000+0 0  7661
2 91055  90.0000 198.8383 0057450 192.9653 166.8284  1.93504662169140
GOES-9
1 93581U 95025A   01311.43599209 -.00000094  00000-0  00000+0 0  8214
2 93581   0.0000  93.7945 0005741 214.4722 151.5103  1.00270260 23672
GOES-9
1 93582U 95025A   01311.43599209 -.00000094  00000-0  00000+0 0  8214
2 93582  90.0000  93.7945 0005741 214.4722 151.5103  1.00270260 23672
94029HF
1 94156U 94029HF  02079.22959898  .00078684  00000-0  11005-1 0  3773
2 94156  00.0000 162.4355 0207818 237.7291 120.3519 14.63437792297579
94029HF
1 94156U 94029HF  02079.22959898  .00078684  00000-0  11005-1 0  3773
2 94156  90.0000 162.4355 0207818 237.7291 120.3519 14.63437792297579
